GALAXY 16 (G-16)        
1 29236U 06023A   26196.68004169 -.00000137  00000+0  00000+0 0  9991
2 29236   0.0257 162.5439 0002491 310.1808 326.6004  1.00271358 73250
EUTELSAT 33F            
1 29270U 06032A   26196.84875580  .00000144  00000+0  00000+0 0  9997
2 29270   1.7338  81.9219 0003440  29.6158 160.7622  1.00272151 47594
JCSAT-3A                
1 29272U 06033A   26196.55391690 -.00000355  00000+0  00000+0 0  9998
2 29272   0.0130  23.1373 0001828  91.7026 145.9655  1.00270480 48022
KOREASAT 5 (MUGUNGWHA 5)
1 29349U 06034A   26196.79329580 -.00000369  00000+0  00000+0 0  9994
2 29349   1.8570  82.6312 0001865  81.5208 168.1132  1.00269395 41604
DIRECTV 9S              
1 29494U 06043A   26196.67960836 -.00000125  00000+0  00000+0 0  9997
2 29494   2.4923  80.5590 0004935  32.4520 323.9686  1.00272500 51666
OPTUS D1                
1 29495U 06043B   26196.72974087 -.00000196  00000+0  00000+0 0  9995
2 29495   3.1062  79.3034 0003359  32.3761 236.5453  1.00269860 72404
BADR-4                  
1 29526U 06051A   26196.84901580  .00000144  00000+0  00000+0 0  9992
2 29526   2.0768  80.8060 0004762  31.3352 161.6362  1.00271615 51551
WILDBLUE-1              
1 29643U 06054A   26196.60632068 -.00000061  00000+0  00000+0 0  9990
2 29643   2.8744  80.1252 0001309  41.4814 278.9067  1.00271344 54071
SKYNET 5A               
1 30794U 07007B   26196.71847413 -.00000284  00000+0  00000+0 0  9999
2 30794   5.3702  73.3914 0003695  45.9124 168.1012  1.00269168 70983
ANIK F3                 
1 31102U 07009A   26196.74707427 -.00000012  00000+0  00000+0 0  9997
2 31102   1.2695  83.5067 0002458  30.2447 330.0559  1.00271230 46854
ASTRA 1L                
1 31306U 07016A   26196.76605436 -.00000196  00000+0  00000+0 0  9993
2 31306   1.3936  81.3426 0005227  34.8140  68.7205  1.00271071 45272
GALAXY 17 (G-17)        
1 31307U 07016B   26196.61152072 -.00000218  00000+0  00000+0 0  9996
2 31307   3.0414  79.5404 0003564  34.1674 314.8706  1.00271697 70087
INTELSAT 11 (IS-11)     
1 32253U 07044B   26196.77092949 -.00000181  00000+0  00000+0 0  9990
2 32253   3.6378  78.3219 0004218 100.4882  32.4064  0.99052347 68734
WGS F1 (USA 195)        
1 32258U 07046A   26196.48794642 -.00000277  00000+0  00000+0 0  9990
2 32258   0.0161  62.8125 0000351 184.9075 178.7651  1.00268219 52615
SKYNET 5B               
1 32294U 07056B   26196.84688064  .00000127  00000+0  00000+0 0  9994
2 32294   5.3222  73.1597 0003728  44.3503 146.1699  1.00274987 68487
ASTRA 4A                
1 32299U 07057A   26196.77188284  .00000022  00000+0  00000+0 0  9995
2 32299   0.0395 286.3010 0002318 193.8666  96.1092  1.00271494 51930
HORIZONS-2              
1 32388U 07063B   26196.75626100 -.00000265  00000+0  00000+0 0  9993
2 32388   2.6738  80.2741 0003558  20.6116  31.1431  1.00269066 68109
THURAYA-3               
1 32404U 08001A   26196.73794742 -.00000003  00000+0  00000+0 0  9991
2 32404   6.0368  35.8233 0002140  77.6670 149.4404  1.00272007 67774
THOR 5                  
1 32487U 08006A   26196.77075617 -.00000020  00000+0  00000+0 0  9993
2 32487   0.0445 235.1451 0002349 247.8922  87.2832  1.00271461 67603
AMC-14                  
1 32708U 08011A   26196.50155855 -.00000191  00000+0  00000+0 0  9998
2 32708  24.0428  20.1781 0039604   8.4392 164.2123  1.00420371 68459
DIRECTV 11              
1 32729U 08013A   26196.51016899 -.00000136  00000+0  00000+0 0  9997
2 32729   0.0353 223.2222 0000080 348.5472 166.0602  1.00271599 45871
ICO G1                  
1 32763U 08016A   26196.60987404 -.00000184  00000+0  00000+0 0  9990
2 32763   5.5256  36.0310 0002357  66.6258 317.4954  1.00272347 66831
VINASAT-1               
1 32767U 08018A   26196.79702249 -.00000339  00000+0  00000+0 0  9990
2 32767   0.0500 267.8218 0001551 225.0438 219.6325  1.00270311 66872
STAR ONE C2             
1 32768U 08018B   26196.49350429 -.00000287  00000+0  00000+0 0  9999
2 32768   1.3106  82.1929 0002751  48.7478 275.0529  1.00270728 66934
AMOS-3                  
1 32794U 08022A   26196.78294096 -.00000010  00000+0  00000+0 0  9996
2 32794   0.5271  85.7997 0003036  84.3469 106.0492  1.00488437 82628
GALAXY 18 (G-18)        
1 32951U 08024A   26196.74655427  .00000015  00000+0  00000+0 0  9992
2 32951   0.0154  61.5477 0002883  66.4002 311.3927  1.00271620 46130
ZHONGXING-9             
1 33051U 08028A   26196.86048135 -.00000259  00000+0  00000+0 0  9994
2 33051   0.8397  84.9400 0003241  28.4019 222.4823  1.00269108 66327
SKYNET 5C               
1 33055U 08030A   26196.41096167 -.00000152  00000+0  00000+0 0  9992
2 33055   3.8591  76.7039 0004100  46.2942 300.4060  1.00272254 66231
TURKSAT 3A              
1 33056U 08030B   26196.85048913  .00000136  00000+0  00000+0 0  9998
2 33056   0.0367  74.8933 0004899  20.8114 186.1310  1.00270635 52646
ECHOSTAR 11             
1 33207U 08035A   26196.60658068 -.00000069  00000+0  00000+0 0  9998
2 33207   1.0767  83.8498 0002210  20.3362 297.8247  1.00270875 51497
SUPERBIRD-C2            
1 33274U 08038A   26196.79788916 -.00000318  00000+0  00000+0 0  9998
2 33274   2.4328  80.9052 0006183  38.1659 237.8037  1.00272571106017
INMARSAT 4-F3           
1 33278U 08039A   26196.68021501 -.00000152  00000+0  00000+0 0  9997
2 33278   4.3165  31.6911 0002739  88.7708 319.9467  1.00271599 46838
NIMIQ 4                 
1 33373U 08044A   26196.61212737 -.00000230  00000+0  00000+0 0  9992
2 33373   0.0125  26.2182 0001942  73.4388 332.1654  1.00271689 65266
GALAXY 19 (G-19)        
1 33376U 08045A   26196.68038837 -.00000149  00000+0  00000+0 0  9999
2 33376   0.0558 246.5977 0002324 237.9621 316.9060  1.00270753 65183
ASTRA 1M                
1 33436U 08057A   26196.84592728  .00000110  00000+0  00000+0 0  9998
2 33436   0.3682  82.7749 0004464  41.6654 133.1508  1.00269817 46028
EUTELSAT HOTBIRD 13C    
1 33459U 08065A   26196.76094102 -.00000295  00000+0  00000+0 0  9991
2 33459   3.0218  78.8515 0003385  37.4813  40.8963  1.00270541 47639
EXPRESS-AM44            
1 33595U 09007A   26196.84003395 -.00000102  00000+0  00000+0 0  9999
2 33595   3.5345  78.0387 0003628  31.1724 115.8544  1.00271107 52573
NSS-9                   
1 33749U 09008A   26196.73589421  .00000060  00000+0  00000+0 0  9990
2 33749   1.3336  82.3720 0001879  21.5180 277.6686  1.00272169 63805
TELSTAR 11N             
1 34111U 09009A   26196.76345435 -.00000261  00000+0  00000+0 0  9997
2 34111   0.0368 261.8340 0002197 203.7514  65.2936  1.00273068 46530
WGS F2 (USA 204)        
1 34713U 09017A   26196.78233431  .00000058  00000+0  00000+0 0  9991
2 34713   0.0163  43.9281 0000304 186.7857  42.0295  1.00270306 45905
SES-7 (PROTOSTAR 2)     
1 34941U 09027A   26196.79234247 -.00000355  00000+0  00000+0 0  9993
2 34941   0.0103  43.3603 0001424 156.0754 127.6705  1.00269616 62912
MEASAT-3A               
1 35362U 09032A   26195.09162029 -.00000117  00000+0  00000+0 0  9993
2 35362   0.0359 317.7686 0002568 143.9350  23.2173  1.00269864  8307
GOES 14                 
1 35491U 09033A   26196.79563580 -.00000370  00000+0  00000+0 0  9993
2 35491   1.7615  82.6838 0001935  40.3025 221.7758  1.00097780  6876
FM-5                    
1 35493U 09034A   26194.90035760 -.00000205  00000+0  00000+0 0  9998
2 35493   0.0457 259.5714 0000757  86.9227 183.2440  1.00271245 46912
TERRESTAR-1             
1 35496U 09035A   26194.52058797 -.00000064  00000+0  00000+0 0  9998
2 35496   5.1989  48.7738 0002618  55.2029 263.8324  1.00270674 62393
ASIASAT 5               
1 35696U 09042A   26196.86212803  .00000000  00000+0  00000+0 0  9996
2 35696   0.0293  75.6968 0001485  31.7547 237.1888  1.00266646 61994
JCSAT-12 (JCSAT-RA)     
1 35755U 09044A   26196.79710916 -.00000338  00000+0  00000+0 0  9999
2 35755   0.0547 264.2611 0000807 289.9448 158.4427  1.00271824 61894
OPTUS D3                
1 35756U 09044B   26193.95034191 -.00000147  00000+0  00000+0 0  9997
2 35756   0.8917 268.2973 0002923 204.5770 316.2131  1.00268614 61823
NIMIQ 5                 
1 35873U 09050A   26196.61394740 -.00000267  00000+0  00000+0 0  9992
2 35873   0.0430 236.2492 0002553 233.4627 332.0601  1.00270652 61628
AMAZONAS 2              
1 35942U 09054A   26196.75669433 -.00000270  00000+0  00000+0 0  9996
2 35942   1.8874  82.6808 0003178  33.0567  18.2643  1.00269752 61472
COMSATBW-1              
1 35943U 09054B   26196.74905728  .00000015  00000+0  00000+0 0  9992
2 35943   0.0642 172.4472 0002666 302.8516 150.9644  1.00270037 61590
NSS-12                  
1 36032U 09058A   26196.75461519  .00000062  00000+0  00000+0 0  9994
2 36032   0.0914 269.4665 0004876 169.4005 183.3742  1.00270826 61201
THOR 6                  
1 36033U 09058B   26196.77075617  .00000000  00000+0  00000+0 0  9999
2 36033   0.0184  82.0668 0001648  35.1732  93.0081  1.00269848 61297
INTELSAT 14 (IS-14)     
1 36097U 09064A   26196.76198102 -.00000284  00000+0  00000+0 0  9995
2 36097   0.0162 318.7928 0002222 165.3736  38.7348  1.00268466 60892
EUTELSAT 36B            
1 36101U 09065A   26196.85222249  .00000101  00000+0  00000+0 0  9999
2 36101   0.5616  81.3351 0005774  34.2562 175.4102  1.00274205 60992
INTELSAT 15 (IS-15)     
1 36106U 09067A   26196.73030927 -.00000194  00000+0  00000+0 0  9996
2 36106   0.0165 355.9876 0002247 125.1274 160.4945  1.00268580 41510
WGS F3 (USA 211)        
1 36108U 09068A   26196.74516759  .00000054  00000+0  00000+0 0  9996
2 36108   0.2979  85.6112 0000666 101.0929 245.1494  1.00270754 46870
DIRECTV 12              
1 36131U 09075A   26195.96641635 -.00000112  00000+0  00000+0 0  9991
2 36131   0.0065 109.4409 0000351 121.9560 306.6005  1.00271543 46831
BEIDOU-2 G1             
1 36287U 10001A   26196.87001473 -.00000292  00000+0  00000+0 0  9994
2 36287   4.3588  60.3028 0001873 286.1722  40.9007  1.00271757 60457
SDO                     
1 36395U 10005A   26196.34409456 -.00000103  00000+0  00000+0 0  9994
2 36395  34.7081  85.9138 0001836  46.0485 182.8654  1.00277108 60343
